CYGFM07                 
1 41890U 16078G   26101.27096054  .00020657  00000+0  27863-3 0  9995
2 41890  34.9460 313.8715 0008001 285.5801  74.4040 15.56789134518558
CYGFM03                 
1 41891U 16078H   26100.98546554  .00027302  00000+0  36784-3 0  9994
2 41891  34.9415 317.7259 0007114 273.0359  86.9551 15.56789248518482
FENGYUN 3D              
1 43010U 17072A   26101.26642826  .00000485  00000+0  25113-3 0  9992
2 43010  99.0083  74.4994 0000615 204.6042 155.5104 14.19726269435499
NOAA 20 (JPSS-1)        
1 43013U 17073A   26101.18099510  .00000041  00000+0  40526-4 0  9997
2 43013  98.7728  41.2529 0002127  93.7634 266.3785 14.19544787434964
GOES 17                 
1 43226U 18022A   26101.21772911 -.00000180  00000+0  00000+0 0  9998
2 43226   0.7647  86.6843 0000965 268.7903 192.8572  1.00271681 29756
FENGYUN 2H              
1 43491U 18050A   26101.03720172 -.00000125  00000+0  00000+0 0  9994
2 43491   2.8577  79.8406 0001365 156.8954  54.9877  1.00276612 28767
METOP-C                 
1 43689U 18087A   26101.19976261  .00000070  00000+0  51721-4 0  9991
2 43689  98.6701 162.0101 0001548  56.2034 303.9291 14.21508188385317
GEO-KOMPSAT-2A          
1 43823U 18100A   26101.26088929 -.00000342  00000+0  00000+0 0  9992
2 43823   0.0559  48.9851 0002042  18.2967 354.3944  1.00270955 26950
METEOR-M2 2             
1 44387U 19038A   26101.22937418  .00000417  00000+0  20036-3 0  9998
2 44387  98.9128  87.5393 0001019 154.5081 205.6147 14.24348062351766
ARKTIKA-M 1             
1 47719U 21016A   26097.71156402 -.00000124  00000+0  00000+0 0  9994
2 47719  63.2167  67.7774 7259502 269.6087  15.0484  2.00615502 37374
FENGYUN 3E              
1 49008U 21062A   26101.25795859  .00000243  00000+0  13540-3 0  9996
2 49008  98.7521 105.4105 0000601 313.9418  46.1709 14.19899204247082
GOES 18                 
1 51850U 22021A   26101.19766928  .00000098  00000+0  00000+0 0  9999
2 51850   0.0411  49.4364 0000751  36.3726  47.7686  1.00272388  5922
NOAA 21 (JPSS-2)        
1 54234U 22150A   26101.21533570  .00000057  00000+0  47840-4 0  9992
2 54234  98.7590  41.1162 0002466  49.6279 310.5112 14.19561062177045
METEOSAT-12 (MTG-I1)    
1 54743U 22170C   26101.23540919 -.00000004  00000+0  00000+0 0  9991
2 54743   0.7480  27.4544 0001347 304.7803 311.7409  1.00275706 12309
TIANMU-1 03             
1 55973U 23039A   26101.26703264  .00012803  00000+0  26954-3 0  9998
2 55973  97.5211 272.7239 0002535   2.4642 357.6619 15.45417957170497
TIANMU-1 04             
1 55974U 23039B   26101.28086876  .00012936  00000+0  26742-3 0  9996
2 55974  97.5147 271.8917 0003022 352.2988   7.8214 15.45951994170501
TIANMU-1 05             
1 55975U 23039C   26101.30964649  .00012375  00000+0  26112-3 0  9991
2 55975  97.5194 272.4071 0002812  26.7524 333.3869 15.45359526170480
TIANMU-1 06             
1 55976U 23039D   26101.28074252  .00012870  00000+0  26666-3 0  9995
2 55976  97.5202 272.9480 0002960  18.3417 341.7938 15.45884345170507
FENGYUN 3G              
1 56232U 23055A   26101.19271477  .00026489  00000+0  40798-3 0  9990
2 56232  49.9940 331.4402 0003634  72.4999 287.6365 15.53947363169591
METEOR-M2 3             
1 57166U 23091A   26101.27891626 -.00000010  00000+0  14447-4 0  9996
2 57166  98.6147 157.6059 0004135  22.2147 337.9211 14.24041181144995
TIANMU-1 07             
1 57399U 23101A   26100.58196267  .00006637  00000+0  23536-3 0  9996
2 57399  97.2664 152.8131 0003865  66.4019 293.7627 15.29396315151319
TIANMU-1 08             
1 57400U 23101B   26100.09134931  .00000257  00000+0  11525-4 0  9993
2 57400  97.2656 152.1121 0004577  42.6514 317.5081 15.29469236151235
TIANMU-1 09             
1 57401U 23101C   26101.31837997  .00005333  00000+0  18959-3 0  9999
2 57401  97.2611 152.7640 0004181  61.2423 298.9237 15.29406662151426
TIANMU-1 10             
1 57402U 23101D   26100.69660157  .00006989  00000+0  24731-3 0  9995
2 57402  97.2689 153.1370 0005280  46.1335 314.0341 15.29443876151325
FENGYUN 3F              
1 57490U 23111A   26101.31376892  .00000030  00000+0  34446-4 0  9999
2 57490  98.6869 172.5576 0000774  95.2500 264.8765 14.19927353139370
ARKTIKA-M 2             
1 58584U 23198A   26097.47450937  .00000153  00000+0  00000+0 0  9993
2 58584  63.2180 162.2248 6884059 267.6717  18.8419  2.00611065 16901
TIANMU-1 11             
1 58645U 23205A   26101.32807380  .00004468  00000+0  17478-3 0  9992
2 58645  97.3509 123.9527 0007469 232.4686 127.5874 15.26324888127325
TIANMU-1 12             
1 58646U 23205B   26101.29636637  .00004561  00000+0  17869-3 0  9992
2 58646  97.3499 123.6922 0006261 209.8905 150.1977 15.26265791127302
TIANMU-1 13             
1 58647U 23205C   26101.32617515  .00004670  00000+0  18260-3 0  9998
2 58647  97.3525 123.9747 0007154 190.6362 169.4727 15.26317476127301
TIANMU-1 14             
1 58648U 23205D   26101.31129130  .00004366  00000+0  17102-3 0  9995
2 58648  97.3461 123.1996 0007702 196.5415 163.5574 15.26290438127305
TIANMU-1 19             
1 58660U 23208A   26101.29594696  .00007001  00000+0  23961-3 0  9991
2 58660  97.4414 217.3401 0005195 177.7735 182.3530 15.30546778127098
TIANMU-1 20             
1 58661U 23208B   26101.25503138  .00007392  00000+0  24364-3 0  9990
2 58661  97.4354 217.8656 0007073 191.0029 169.1059 15.31732367127171
TIANMU-1 21             
1 58662U 23208C   26101.27487858  .00008714  00000+0  26828-3 0  9999
2 58662  97.4413 220.2875 0007116 185.9135 174.2024 15.33864154127303
TIANMU-1 22             
1 58663U 23208D   26101.25689634  .00006768  00000+0  23490-3 0  9993
2 58663  97.4409 217.2896 0003348 196.1187 163.9947 15.30107882127092
TIANMU-1 15             
1 58700U 24004A   26101.30867367  .00004925  00000+0  19249-3 0  9997
2 58700  97.4683 287.5160 0006189 214.2751 145.8089 15.26320646125574
TIANMU-1 16             
1 58701U 24004B   26101.29138891  .00004758  00000+0  18590-3 0  9991
2 58701  97.4628 286.7990 0004591 214.3350 145.7592 15.26358306125579
TIANMU-1 17             
1 58702U 24004C   26101.27393766  .00004868  00000+0  19097-3 0  9999
2 58702  97.4658 287.2479 0004363 220.4608 139.6306 15.26208055125561
TIANMU-1 18             
1 58703U 24004D   26101.25942045  .00004989  00000+0  19501-3 0  9992
2 58703  97.4676 287.4519 0003243 208.5520 151.5541 15.26324815125562
INSAT-3DS               
1 58990U 24033A   26101.08863991 -.00000155  00000+0  00000+0 0  9997
2 58990   0.0536  85.8080 0002022 300.0349 287.4522  1.00273459 46394
METEOR-M2 4             
1 59051U 24039A   26101.28802961  .00000022  00000+0  29729-4 0  9990
2 59051  98.6956  61.4485 0007305  12.7491 347.3871 14.22422456109759
GOES 19                 
1 60133U 24119A   26101.22058912 -.00000247  00000+0  00000+0 0  9991
2 60133   0.0221  37.2636 0000992  36.2041 130.1807  1.00269872  6295
FENGYUN 3H              
1 65815U 25219A   26101.23924779  .00000066  00000+0  51237-4 0  9990
2 65815  98.6725  43.3264 0000672  81.3487 278.7765 14.19941541 27888
OSCAR 7 (AO-7)          
1 07530U 74089B   26101.26135762 -.00000028  00000+0  11678-3 0  9991
2 07530 101.9946 113.8018 0011875 258.4419 113.0613 12.53697001352137
PHASE 3B (AO-10)        
1 14129U 83058B   26100.38508147 -.00000235  00000+0  00000+0 0  9995
2 14129  25.9010 230.8917 6035193  96.9394 330.9290  2.05874290294090
UOSAT 2 (UO-11)         
1 14781U 84021B   26101.16458168  .00001145  00000+0  12259-3 0  9997
2 14781  97.8003  67.5203 0008876  53.0865 307.1165 14.90623969247149
LUSAT (LO-19)           
1 20442U 90005G   26101.27336072  .00000112  00000+0  56682-4 0  9990
2 20442  98.8904 121.2198 0012344  46.5826 313.6383 14.34102144892809
EYESAT A (AO-27)        
1 22825U 93061C   26101.15219958  .00000075  00000+0  45671-4 0  9996
2 22825  98.6922 168.5764 0007334 300.8920  59.1541 14.30924297697416
ITAMSAT (IO-26)         
1 22826U 93061D   26101.15154072  .00000086  00000+0  49273-4 0  9996
2 22826  98.6870 168.4865 0007740 281.8485  78.1829 14.31349451697723
RADIO ROSTO (RS15)      
1 23439U 94085A   26101.24441520 -.00000034  00000+0  23977-3 0  9997
2 23439  64.8184  51.4782 0153922  16.0270 344.5447 11.27583824288357
JAS-2 (FO-29)           
1 24278U 96046B   26101.10318155 -.00000016  00000+0  22502-4 0  9994
2 24278  98.5326 319.1302 0348801 270.5319  85.5871 13.53270985464098
TECHSAT 1B (GO-32)      
1 25397U 98043D   26101.26299025  .00000066  00000+0  48520-4 0  9999
2 25397  99.0056  92.3414 0002215  67.4391 292.7021 14.24415170441809
ISS (ZARYA)             
1 25544U 98067A   26101.16675691  .00005918  00000+0  11600-3 0  9994
2 25544  51.6326 271.7779 0006464 298.5374  61.4964 15.48869271561365
PCSAT (NO-44)           
1 26931U 01043C   26101.24680633  .00000126  00000+0  77992-4 0  9997
2 26931  67.0509  57.4056 0006733 264.4698  95.5636 14.31929852280867
SAUDISAT 1C (SO-50)     
1 27607U 02058C   26101.05674177  .00000877  00000+0  12114-3 0  9997
2 27607  64.5532 336.6627 0075528 274.6900  84.5583 14.82903640254503
CUTE-1 (CO-55)          
1 27844U 03031E   26101.01962484  .00000311  00000+0  15370-3 0  9999
2 27844  98.6767 110.4182 0010060  27.5031 332.6678 14.24294173182117
CUBESAT XI-IV (CO-57)   
1 27848U 03031J   26100.90424602  .00000259  00000+0  13285-3 0  9999
2 27848  98.6797 110.0707 0010242  45.0972 315.1036 14.23585016181801
MOZHAETS 4 (RS22)       
1 27939U 03042A   26101.33171389  .00000608  00000+0  10209-3 0  9992
2 27939  98.3468 283.8066 0012359 117.6025   4.6448 14.73347149205708
CUBESAT XI-V            
1 28895U 05043F   26100.92775006  .00001497  00000+0  24399-3 0  9999
2 28895  98.2897 255.1754 0015117  62.0932 298.1804 14.72457158 91852
CUTE-1.7+APD II (CO-65) 
1 32785U 08021C   26101.21427378  .00004733  00000+0  30481-3 0  9995
2 32785  97.8247  81.2904 0007228 253.3261 106.7173 15.08831865975099
